[{"OBJECT_NAME":"CE-SAT IIB","OBJECT_ID":"2020-077F","EPOCH":"2026-03-09T18:06:55.423296","MEAN_MOTION":15.78607824,"ECCENTRICITY":0.00042807,"INCLINATION":97.2135,"RA_OF_ASC_NODE":145.8612,"ARG_OF_PERICENTER":159.2096,"MEAN_ANOMALY":200.9346,"EPHEMERIS_TYPE":0,"CLASSIFICATION_TYPE":"U","NORAD_CAT_ID":46818,"ELEMENT_SET_NO":999,"REV_AT_EPOCH":29950,"BSTAR":0.00039535619,"MEAN_MOTION_DOT":0.00068981,"MEAN_MOTION_DDOT":0},{"OBJECT_NAME":"STARLINK-36870","OBJECT_ID":"2026-035U","EPOCH":"2026-03-09T22:00:01.999584","MEAN_MOTION":15.86833139,"ECCENTRICITY":0.00013767,"INCLINATION":97.2676,"RA_OF_ASC_NODE":1.2838,"ARG_OF_PERICENTER":89.1714,"MEAN_ANOMALY":25.6486,"EPHEMERIS_TYPE":0,"CLASSIFICATION_TYPE":"U","NORAD_CAT_ID":67897,"ELEMENT_SET_NO":999,"REV_AT_EPOCH":379,"BSTAR":-0.0062535552,"MEAN_MOTION_DOT":-0.01392445,"MEAN_MOTION_DDOT":0}]
